{"type": "FeatureCollection", "features": [ {"type": "Feature", "properties": {"norad_id": 43108, "name": "BEIDOU-3 M8 (C28)", "group": "beidou", "lat": 54.32892403439985, "lon": 44.93780778714485, "alt_km": 21535.096125346212, "timestamp": "2025-12-13T15:35:12.371669+00:00", "meta": {"OBJECT_NAME": "BEIDOU-3 M8 (C28)", "OBJECT_ID": "2018-003B", "EPOCH": "2025-12-11T21:34:27.940800", "MEAN_MOTION": 1.86230629, "ECCENTRICITY": 0.00047751, "INCLINATION": 54.4899, "RA_OF_ASC_NODE": 308.8263, "ARG_OF_PERICENTER": 274.4182, "MEAN_ANOMALY": 85.5183, "EPHEMERIS_TYPE": 0, "CLASSIFICATION_TYPE": "U", "NORAD_CAT_ID": 43108, "ELEMENT_SET_NO": 999, "REV_AT_EPOCH": 5387, "BSTAR": 0, "MEAN_MOTION_DOT": -9e-07, "MEAN_MOTION_DDOT": 0}, "tle": {"line1": "1 43108U 18003B   25345.89893450 -.00000090  00000+0  00000+0 0  9991", "line2": "2 43108  54.4899 308.8263 0004775 274.4182  85.5183  1.86230629 53878"}}, "geometry": {"type": "Point", "coordinates": [44.93780778714485, 54.32892403439985]}}, {"type": "Feature", "properties": {"norad_id": 43207, "name": "BEIDOU-3 M4 (C22)", "group": "beidou", "lat": 18.681011176413968, "lon": -123.64841425798159, "alt_km": 21535.559284508283, "timestamp": "2025-12-13T15:35:12.371680+00:00", "meta": {"OBJECT_NAME": "BEIDOU-3 M4 (C22)", "OBJECT_ID": "2018-018A", "EPOCH": "2025-12-10T17:31:13.270944", "MEAN_MOTION": 1.86230984, "ECCENTRICITY": 0.00041357, "INCLINATION": 56.4844, "RA_OF_ASC_NODE": 69.3703, "ARG_OF_PERICENTER": 10.5342, "MEAN_ANOMALY": 349.4961, "EPHEMERIS_TYPE": 0, "CLASSIFICATION_TYPE": "U", "NORAD_CAT_ID": 43207, "ELEMENT_SET_NO": 999, "REV_AT_EPOCH": 5323, "BSTAR": 0, "MEAN_MOTION_DOT": -5.7e-07, "MEAN_MOTION_DDOT": 0}, "tle": {"line1": "1 43207U 18018A   25344.73001471 -.00000057  00000+0  00000+0 0  9996", "line2": "2 43207  56.4844  69.3703 0004135  10.5342 349.4961  1.86230984 53235"}}, "geometry": {"type": "Point", "coordinates": [-123.64841425798159, 18.681011176413968]}}, {"type": "Feature", "properties": {"norad_id": 43208, "name": "BEIDOU-3 M3 (C21)", "group": "beidou", "lat": 50.26976316234365, "lon": -163.48619118426808, "alt_km": 21538.794998280853, "timestamp": "2025-12-13T15:35:12.371691+00:00", "meta": {"OBJECT_NAME": "BEIDOU-3 M3 (C21)", "OBJECT_ID": "2018-018B", "EPOCH": "2025-12-10T19:07:00.567840", "MEAN_MOTION": 1.8623124, "ECCENTRICITY": 0.0006564, "INCLINATION": 56.484, "RA_OF_ASC_NODE": 69.3721, "ARG_OF_PERICENTER": 317.0111, "MEAN_ANOMALY": 42.9593, "EPHEMERIS_TYPE": 0, "CLASSIFICATION_TYPE": "U", "NORAD_CAT_ID": 43208, "ELEMENT_SET_NO": 999, "REV_AT_EPOCH": 5323, "BSTAR": 0, "MEAN_MOTION_DOT": -5.7e-07, "MEAN_MOTION_DDOT": 0}, "tle": {"line1": "1 43208U 18018B   25344.79653435 -.00000057  00000+0  00000+0 0  9996", "line2": "2 43208  56.4840  69.3721 0006564 317.0111  42.9593  1.86231240 53231"}}, "geometry": {"type": "Point", "coordinates": [-163.48619118426808, 50.26976316234365]}}, {"type": "Feature", "properties": {"norad_id": 43245, "name": "BEIDOU-3 M9 (C29)", "group": "beidou", "lat": -25.67233299846773, "lon": -73.73868447301675, "alt_km": 21528.930279153417, "timestamp": "2025-12-13T15:35:12.371702+00:00", "meta": {"OBJECT_NAME": "BEIDOU-3 M9 (C29)", "OBJECT_ID": "2018-029A", "EPOCH": "2025-12-09T09:38:36.109248", "MEAN_MOTION": 1.86227964, "ECCENTRICITY": 0.00016746, "INCLINATION": 54.3687, "RA_OF_ASC_NODE": 306.5834, "ARG_OF_PERICENTER": 274.0787, "MEAN_ANOMALY": 85.8921, "EPHEMERIS_TYPE": 0, "CLASSIFICATION_TYPE": "U", "NORAD_CAT_ID": 43245, "ELEMENT_SET_NO": 999, "REV_AT_EPOCH": 5236, "BSTAR": 0, "MEAN_MOTION_DOT": -7.6e-07, "MEAN_MOTION_DDOT": 0}, "tle": {"line1": "1 43245U 18029A   25343.40180682 -.00000076  00000+0  00000+0 0  9996", "line2": "2 43245  54.3687 306.5834 0001674 274.0787  85.8921  1.86227964 52369"}}, "geometry": {"type": "Point", "coordinates": [-73.73868447301675, -25.67233299846773]}}, {"type": "Feature", "properties": {"norad_id": 43246, "name": "BEIDOU-3 M10 (C30)", "group": "beidou", "lat": 9.089953284139243, "lon": -46.96925391533923, "alt_km": 21516.298293851436, "timestamp": "2025-12-13T15:35:12.371713+00:00", "meta": {"OBJECT_NAME": "BEIDOU-3 M10 (C30)", "OBJECT_ID": "2018-029B", "EPOCH": "2025-12-12T13:24:42.846336", "MEAN_MOTION": 1.86228821, "ECCENTRICITY": 0.00040298, "INCLINATION": 54.3631, "RA_OF_ASC_NODE": 306.5011, "ARG_OF_PERICENTER": 0.3808, "MEAN_ANOMALY": 359.61, "EPHEMERIS_TYPE": 0, "CLASSIFICATION_TYPE": "U", "NORAD_CAT_ID": 43246, "ELEMENT_SET_NO": 999, "REV_AT_EPOCH": 5240, "BSTAR": 0, "MEAN_MOTION_DOT": -9.4e-07, "MEAN_MOTION_DDOT": 0}, "tle": {"line1": "1 43246U 18029B   25346.55882924 -.00000094  00000+0  00000+0 0  9994", "line2": "2 43246  54.3631 306.5011 0004029   0.3808 359.6100  1.86228821 52406"}}, "geometry": {"type": "Point", "coordinates": [-46.96925391533923, 9.089953284139243]}}, {"type": "Feature", "properties": {"norad_id": 43539, "name": "BEIDOU-2 IGSO-7 (C16)", "group": "beidou", "lat": -54.52733436888823, "lon": 62.645826778813756, "alt_km": 35451.203047948125, "timestamp": "2025-12-13T15:35:12.371724+00:00", "meta": {"OBJECT_NAME": "BEIDOU-2 IGSO-7 (C16)", "OBJECT_ID": "2018-057A", "EPOCH": "2025-12-12T21:40:21.690912", "MEAN_MOTION": 1.00257087, "ECCENTRICITY": 0.00924019, "INCLINATION": 55.1754, "RA_OF_ASC_NODE": 164.6693, "ARG_OF_PERICENTER": 235.1751, "MEAN_ANOMALY": 117.987, "EPHEMERIS_TYPE": 0, "CLASSIFICATION_TYPE": "U", "NORAD_CAT_ID": 43539, "ELEMENT_SET_NO": 999, "REV_AT_EPOCH": 2725, "BSTAR": 0, "MEAN_MOTION_DOT": -3.7e-07, "MEAN_MOTION_DDOT": 0}, "tle": {"line1": "1 43539U 18057A   25346.90302883 -.00000037  00000+0  00000+0 0  9997", "line2": "2 43539  55.1754 164.6693 0092401 235.1751 117.9870  1.00257087 27257"}}, "geometry": {"type": "Point", "coordinates": [62.645826778813756, -54.52733436888823]}}, {"type": "Feature", "properties": {"norad_id": 43581, "name": "BEIDOU-3 M5 (C23)", "group": "beidou", "lat": -31.792048704968643, "lon": 35.311531314308695, "alt_km": 21536.304067213045, "timestamp": "2025-12-13T15:35:12.371736+00:00", "meta": {"OBJECT_NAME": "BEIDOU-3 M5 (C23)", "OBJECT_ID": "2018-062A", "EPOCH": "2025-12-12T05:55:01.607232", "MEAN_MOTION": 1.86228672, "ECCENTRICITY": 0.00021016, "INCLINATION": 54.0891, "RA_OF_ASC_NODE": 188.6597, "ARG_OF_PERICENTER": 354.1416, "MEAN_ANOMALY": 5.9159, "EPHEMERIS_TYPE": 0, "CLASSIFICATION_TYPE": "U", "NORAD_CAT_ID": 43581, "ELEMENT_SET_NO": 999, "REV_AT_EPOCH": 5015, "BSTAR": 0, "MEAN_MOTION_DOT": 7.9e-07, "MEAN_MOTION_DDOT": 0}, "tle": {"line1": "1 43581U 18062A   25346.24654638  .00000079  00000+0  00000+0 0  9990", "line2": "2 43581  54.0891 188.6597 0002101 354.1416   5.9159  1.86228672 50154"}}, "geometry": {"type": "Point", "coordinates": [35.311531314308695, -31.792048704968643]}}, {"type": "Feature", "properties": {"norad_id": 43582, "name": "BEIDOU-3 M6 (C24)", "group": "beidou", "lat": -36.75347688349128, "lon": 155.8378283226307, "alt_km": 21534.541493118013, "timestamp": "2025-12-13T15:35:12.371747+00:00", "meta": {"OBJECT_NAME": "BEIDOU-3 M6 (C24)", "OBJECT_ID": "2018-062B", "EPOCH": "2025-12-12T15:31:04.646784", "MEAN_MOTION": 1.86229838, "ECCENTRICITY": 0.00078852, "INCLINATION": 54.0888, "RA_OF_ASC_NODE": 188.6352, "ARG_OF_PERICENTER": 47.3846, "MEAN_ANOMALY": 312.743, "EPHEMERIS_TYPE": 0, "CLASSIFICATION_TYPE": "U", "NORAD_CAT_ID": 43582, "ELEMENT_SET_NO": 999, "REV_AT_EPOCH": 5016, "BSTAR": 0, "MEAN_MOTION_DOT": 8.5e-07, "MEAN_MOTION_DDOT": 0}, "tle": {"line1": "1 43582U 18062B   25346.64658156  .00000085  00000+0  00000+0 0  9991", "line2": "2 43582  54.0888 188.6352 0007885  47.3846 312.7430  1.86229838 50169"}}, "geometry": {"type": "Point", "coordinates": [155.8378283226307, -36.75347688349128]}}, {"type": "Feature", "properties": {"norad_id": 43602, "name": "BEIDOU-3 M12 (C26)", "group": "beidou", "lat": -4.830855510325727, "lon": -176.1613280477078, "alt_km": 21511.835543784426, "timestamp": "2025-12-13T15:35:12.371757+00:00", "meta": {"OBJECT_NAME": "BEIDOU-3 M12 (C26)", "OBJECT_ID": "2018-067A", "EPOCH": "2025-12-11T12:15:06.004224", "MEAN_MOTION": 1.86227612, "ECCENTRICITY": 0.00091491, "INCLINATION": 54.1831, "RA_OF_ASC_NODE": 187.4051, "ARG_OF_PERICENTER": 41.0073, "MEAN_ANOMALY": 319.1184, "EPHEMERIS_TYPE": 0, "CLASSIFICATION_TYPE": "U", "NORAD_CAT_ID": 43602, "ELEMENT_SET_NO": 999, "REV_AT_EPOCH": 4962, "BSTAR": 0, "MEAN_MOTION_DOT": 7.1e-07, "MEAN_MOTION_DDOT": 0}, "tle": {"line1": "1 43602U 18067A   25345.51048616  .00000071  00000+0  00000+0 0  9993", "line2": "2 43602  54.1831 187.4051 0009149  41.0073 319.1184  1.86227612 49626"}}, "geometry": {"type": "Point", "coordinates": [-176.1613280477078, -4.830855510325727]}}, {"type": "Feature", "properties": {"norad_id": 43603, "name": "BEIDOU-3 M11 (C25)", "group": "beidou", "lat": -53.70916952105183, "lon": 86.9299985030511, "alt_km": 21544.824661514893, "timestamp": "2025-12-13T15:35:12.371771+00:00", "meta": {"OBJECT_NAME": "BEIDOU-3 M11 (C25)", "OBJECT_ID": "2018-067B", "EPOCH": "2025-12-12T04:22:00.818688", "MEAN_MOTION": 1.86227161, "ECCENTRICITY": 0.00055795, "INCLINATION": 54.1804, "RA_OF_ASC_NODE": 187.3462, "ARG_OF_PERICENTER": 36.7716, "MEAN_ANOMALY": 323.3248, "EPHEMERIS_TYPE": 0, "CLASSIFICATION_TYPE": "U", "NORAD_CAT_ID": 43603, "ELEMENT_SET_NO": 999, "REV_AT_EPOCH": 4966, "BSTAR": 0, "MEAN_MOTION_DOT": 8e-07, "MEAN_MOTION_DDOT": 0}, "tle": {"line1": "1 43603U 18067B   25346.18195392  .00000080  00000+0  00000+0 0  9992", "line2": "2 43603  54.1804 187.3462 0005579  36.7716 323.3248  1.86227161 49661"}}, "geometry": {"type": "Point", "coordinates": [86.9299985030511, -53.70916952105183]}}]}